<?xml version="1.0" encoding="UTF-8"?>
<ndm xmlns:xsi="http://www.w3.org/2001/XMLSchema-instance" xsi:noNamespaceSchemaLocation="https://sanaregistry.org/r/ndmxml_unqualified/ndmxml-2.0.0-master-2.0.xsd">
<omm id="CCSDS_OMM_VERS" version="2.0">
<header><CREATION_DATE/><ORIGINATOR/></header><body><segment><metadata><OBJECT_NAME>ONEWEB-0176</OBJECT_NAME><OBJECT_ID>2021-031A</OBJECT_ID><CENTER_NAME>EARTH</CENTER_NAME><REF_FRAME>TEME</REF_FRAME><TIME_SYSTEM>UTC</TIME_SYSTEM><MEAN_ELEMENT_THEORY>SGP4</MEAN_ELEMENT_THEORY></metadata><data><meanElements><EPOCH>2025-02-23T11:22:55.167168</EPOCH><MEAN_MOTION>13.14502252</MEAN_MOTION><ECCENTRICITY>.0001925</ECCENTRICITY><INCLINATION>87.9035</INCLINATION><RA_OF_ASC_NODE>24.8787</RA_OF_ASC_NODE><ARG_OF_PERICENTER>83.6732</ARG_OF_PERICENTER><MEAN_ANOMALY>276.4617</MEAN_ANOMALY></meanElements><tleParameters><EPHEMERIS_TYPE>0</EPHEMERIS_TYPE><CLASSIFICATION_TYPE>U</CLASSIFICATION_TYPE><NORAD_CAT_ID>48210</NORAD_CAT_ID><ELEMENT_SET_NO>999</ELEMENT_SET_NO><REV_AT_EPOCH>18671</REV_AT_EPOCH><BSTAR>-.51524E-3</BSTAR><MEAN_MOTION_DOT>-.178E-5</MEAN_MOTION_DOT><MEAN_MOTION_DDOT>0</MEAN_MOTION_DDOT></tleParameters></data></segment></body></omm>
<omm id="CCSDS_OMM_VERS" version="2.0">
<header><CREATION_DATE/><ORIGINATOR/></header><body><segment><metadata><OBJECT_NAME>ONEWEB-0184</OBJECT_NAME><OBJECT_ID>2021-031B</OBJECT_ID><CENTER_NAME>EARTH</CENTER_NAME><REF_FRAME>TEME</REF_FRAME><TIME_SYSTEM>UTC</TIME_SYSTEM><MEAN_ELEMENT_THEORY>SGP4</MEAN_ELEMENT_THEORY></metadata><data><meanElements><EPOCH>2025-02-23T10:44:05.982144</EPOCH><MEAN_MOTION>13.14501533</MEAN_MOTION><ECCENTRICITY>.0002751</ECCENTRICITY><INCLINATION>87.9032</INCLINATION><RA_OF_ASC_NODE>24.8585</RA_OF_ASC_NODE><ARG_OF_PERICENTER>82.3446</ARG_OF_PERICENTER><MEAN_ANOMALY>277.7996</MEAN_ANOMALY></meanElements><tleParameters><EPHEMERIS_TYPE>0</EPHEMERIS_TYPE><CLASSIFICATION_TYPE>U</CLASSIFICATION_TYPE><NORAD_CAT_ID>48211</NORAD_CAT_ID><ELEMENT_SET_NO>999</ELEMENT_SET_NO><REV_AT_EPOCH>18539</REV_AT_EPOCH><BSTAR>.66364E-3</BSTAR><MEAN_MOTION_DOT>.259E-5</MEAN_MOTION_DOT><MEAN_MOTION_DDOT>0</MEAN_MOTION_DDOT></tleParameters></data></segment></body></omm>
<omm id="CCSDS_OMM_VERS" version="2.0">
<header><CREATION_DATE/><ORIGINATOR/></header><body><segment><metadata><OBJECT_NAME>ONEWEB-0179</OBJECT_NAME><OBJECT_ID>2021-031C</OBJECT_ID><CENTER_NAME>EARTH</CENTER_NAME><REF_FRAME>TEME</REF_FRAME><TIME_SYSTEM>UTC</TIME_SYSTEM><MEAN_ELEMENT_THEORY>SGP4</MEAN_ELEMENT_THEORY></metadata><data><meanElements><EPOCH>2025-02-23T10:00:42.801120</EPOCH><MEAN_MOTION>13.14502949</MEAN_MOTION><ECCENTRICITY>.0001843</ECCENTRICITY><INCLINATION>87.9035</INCLINATION><RA_OF_ASC_NODE>24.8767</RA_OF_ASC_NODE><ARG_OF_PERICENTER>80.3199</ARG_OF_PERICENTER><MEAN_ANOMALY>279.8139</MEAN_ANOMALY></meanElements><tleParameters><EPHEMERIS_TYPE>0</EPHEMERIS_TYPE><CLASSIFICATION_TYPE>U</CLASSIFICATION_TYPE><NORAD_CAT_ID>48212</NORAD_CAT_ID><ELEMENT_SET_NO>999</ELEMENT_SET_NO><REV_AT_EPOCH>18543</REV_AT_EPOCH><BSTAR>.36326E-4</BSTAR><MEAN_MOTION_DOT>.26E-6</MEAN_MOTION_DOT><MEAN_MOTION_DDOT>0</MEAN_MOTION_DDOT></tleParameters></data></segment></body></omm>
<omm id="CCSDS_OMM_VERS" version="2.0">
<header><CREATION_DATE/><ORIGINATOR/></header><body><segment><metadata><OBJECT_NAME>ONEWEB-0180</OBJECT_NAME><OBJECT_ID>2021-031D</OBJECT_ID><CENTER_NAME>EARTH</CENTER_NAME><REF_FRAME>TEME</REF_FRAME><TIME_SYSTEM>UTC</TIME_SYSTEM><MEAN_ELEMENT_THEORY>SGP4</MEAN_ELEMENT_THEORY></metadata><data><meanElements><EPOCH>2025-02-23T10:48:39.363840</EPOCH><MEAN_MOTION>13.14504853</MEAN_MOTION><ECCENTRICITY>.0002045</ECCENTRICITY><INCLINATION>87.9033</INCLINATION><RA_OF_ASC_NODE>24.8614</RA_OF_ASC_NODE><ARG_OF_PERICENTER>78.1808</ARG_OF_PERICENTER><MEAN_ANOMALY>281.9551</MEAN_ANOMALY></meanElements><tleParameters><EPHEMERIS_TYPE>0</EPHEMERIS_TYPE><CLASSIFICATION_TYPE>U</CLASSIFICATION_TYPE><NORAD_CAT_ID>48213</NORAD_CAT_ID><ELEMENT_SET_NO>999</ELEMENT_SET_NO><REV_AT_EPOCH>18532</REV_AT_EPOCH><BSTAR>.39516E-3</BSTAR><MEAN_MOTION_DOT>.159E-5</MEAN_MOTION_DOT><MEAN_MOTION_DDOT>0</MEAN_MOTION_DDOT></tleParameters></data></segment></body></omm>
<omm id="CCSDS_OMM_VERS" version="2.0">
<header><CREATION_DATE/><ORIGINATOR/></header><body><segment><metadata><OBJECT_NAME>ONEWEB-0218</OBJECT_NAME><OBJECT_ID>2021-031E</OBJECT_ID><CENTER_NAME>EARTH</CENTER_NAME><REF_FRAME>TEME</REF_FRAME><TIME_SYSTEM>UTC</TIME_SYSTEM><MEAN_ELEMENT_THEORY>SGP4</MEAN_ELEMENT_THEORY></metadata><data><meanElements><EPOCH>2025-02-22T20:43:45.175584</EPOCH><MEAN_MOTION>13.14504497</MEAN_MOTION><ECCENTRICITY>.0002859</ECCENTRICITY><INCLINATION>87.9032</INCLINATION><RA_OF_ASC_NODE>24.9793</RA_OF_ASC_NODE><ARG_OF_PERICENTER>76.3007</ARG_OF_PERICENTER><MEAN_ANOMALY>283.8440</MEAN_ANOMALY></meanElements><tleParameters><EPHEMERIS_TYPE>0</EPHEMERIS_TYPE><CLASSIFICATION_TYPE>U</CLASSIFICATION_TYPE><NORAD_CAT_ID>48214</NORAD_CAT_ID><ELEMENT_SET_NO>999</ELEMENT_SET_NO><REV_AT_EPOCH>18540</REV_AT_EPOCH><BSTAR>-.46342E-3</BSTAR><MEAN_MOTION_DOT>-.159E-5</MEAN_MOTION_DOT><MEAN_MOTION_DDOT>0</MEAN_MOTION_DDOT></tleParameters></data></segment></body></omm>
<omm id="CCSDS_OMM_VERS" version="2.0">
<header><CREATION_DATE/><ORIGINATOR/></header><body><segment><metadata><OBJECT_NAME>ONEWEB-0209</OBJECT_NAME><OBJECT_ID>2021-031F</OBJECT_ID><CENTER_NAME>EARTH</CENTER_NAME><REF_FRAME>TEME</REF_FRAME><TIME_SYSTEM>UTC</TIME_SYSTEM><MEAN_ELEMENT_THEORY>SGP4</MEAN_ELEMENT_THEORY></metadata><data><meanElements><EPOCH>2025-02-23T09:15:02.743488</EPOCH><MEAN_MOTION>13.14502599</MEAN_MOTION><ECCENTRICITY>.0001832</ECCENTRICITY><INCLINATION>87.9037</INCLINATION><RA_OF_ASC_NODE>24.9156</RA_OF_ASC_NODE><ARG_OF_PERICENTER>77.3558</ARG_OF_PERICENTER><MEAN_ANOMALY>282.7776</MEAN_ANOMALY></meanElements><tleParameters><EPHEMERIS_TYPE>0</EPHEMERIS_TYPE><CLASSIFICATION_TYPE>U</CLASSIFICATION_TYPE><NORAD_CAT_ID>48215</NORAD_CAT_ID><ELEMENT_SET_NO>999</ELEMENT_SET_NO><REV_AT_EPOCH>18547</REV_AT_EPOCH><BSTAR>.21837E-4</BSTAR><MEAN_MOTION_DOT>.21E-6</MEAN_MOTION_DOT><MEAN_MOTION_DDOT>0</MEAN_MOTION_DDOT></tleParameters></data></segment></body></omm>
<omm id="CCSDS_OMM_VERS" version="2.0">
<header><CREATION_DATE/><ORIGINATOR/></header><body><segment><metadata><OBJECT_NAME>ONEWEB-0198</OBJECT_NAME><OBJECT_ID>2021-031G</OBJECT_ID><CENTER_NAME>EARTH</CENTER_NAME><REF_FRAME>TEME</REF_FRAME><TIME_SYSTEM>UTC</TIME_SYSTEM><MEAN_ELEMENT_THEORY>SGP4</MEAN_ELEMENT_THEORY></metadata><data><meanElements><EPOCH>2025-02-23T03:23:22.913088</EPOCH><MEAN_MOTION>13.14503437</MEAN_MOTION><ECCENTRICITY>.000216</ECCENTRICITY><INCLINATION>87.9035</INCLINATION><RA_OF_ASC_NODE>24.9668</RA_OF_ASC_NODE><ARG_OF_PERICENTER>75.7493</ARG_OF_PERICENTER><MEAN_ANOMALY>284.3876</MEAN_ANOMALY></meanElements><tleParameters><EPHEMERIS_TYPE>0</EPHEMERIS_TYPE><CLASSIFICATION_TYPE>U</CLASSIFICATION_TYPE><NORAD_CAT_ID>48216</NORAD_CAT_ID><ELEMENT_SET_NO>999</ELEMENT_SET_NO><REV_AT_EPOCH>18553</REV_AT_EPOCH><BSTAR>.54212E-3</BSTAR><MEAN_MOTION_DOT>.214E-5</MEAN_MOTION_DOT><MEAN_MOTION_DDOT>0</MEAN_MOTION_DDOT></tleParameters></data></segment></body></omm>
<omm id="CCSDS_OMM_VERS" version="2.0">
<header><CREATION_DATE/><ORIGINATOR/></header><body><segment><metadata><OBJECT_NAME>ONEWEB-0189</OBJECT_NAME><OBJECT_ID>2021-031H</OBJECT_ID><CENTER_NAME>EARTH</CENTER_NAME><REF_FRAME>TEME</REF_FRAME><TIME_SYSTEM>UTC</TIME_SYSTEM><MEAN_ELEMENT_THEORY>SGP4</MEAN_ELEMENT_THEORY></metadata><data><meanElements><EPOCH>2025-02-23T11:00:04.611744</EPOCH><MEAN_MOTION>13.14502565</MEAN_MOTION><ECCENTRICITY>.0002161</ECCENTRICITY><INCLINATION>87.9034</INCLINATION><RA_OF_ASC_NODE>24.8782</RA_OF_ASC_NODE><ARG_OF_PERICENTER>72.9921</ARG_OF_PERICENTER><MEAN_ANOMALY>287.1445</MEAN_ANOMALY></meanElements><tleParameters><EPHEMERIS_TYPE>0</EPHEMERIS_TYPE><CLASSIFICATION_TYPE>U</CLASSIFICATION_TYPE><NORAD_CAT_ID>48217</NORAD_CAT_ID><ELEMENT_SET_NO>999</ELEMENT_SET_NO><REV_AT_EPOCH>18533</REV_AT_EPOCH><BSTAR>.10975E-3</BSTAR><MEAN_MOTION_DOT>.53E-6</MEAN_MOTION_DOT><MEAN_MOTION_DDOT>0</MEAN_MOTION_DDOT></tleParameters></data></segment></body></omm>

</ndm>
