ONEWEB-0176             
1 48210U 21031A   25054.47424962 -.00000178  00000+0 -51524-3 0  9993
2 48210  87.9035  24.8787 0001925  83.6732 276.4617 13.14502252186712
ONEWEB-0184             
1 48211U 21031B   25054.44729146  .00000259  00000+0  66364-3 0  9999
2 48211  87.9032  24.8585 0002751  82.3446 277.7996 13.14501533185390
ONEWEB-0179             
1 48212U 21031C   25054.41716205  .00000026  00000+0  36326-4 0  9997
2 48212  87.9035  24.8767 0001843  80.3199 279.8139 13.14502949185439
ONEWEB-0180             
1 48213U 21031D   25054.45045560  .00000159  00000+0  39516-3 0  9991
2 48213  87.9033  24.8614 0002045  78.1808 281.9551 13.14504853185322
ONEWEB-0218             
1 48214U 21031E   25053.86371731 -.00000159  00000+0 -46342-3 0  9995
2 48214  87.9032  24.9793 0002859  76.3007 283.8440 13.14504497185406
ONEWEB-0209             
1 48215U 21031F   25054.38544842  .00000021  00000+0  21837-4 0  9998
2 48215  87.9037  24.9156 0001832  77.3558 282.7776 13.14502599185475
ONEWEB-0198             
1 48216U 21031G   25054.14123742  .00000214  00000+0  54212-3 0  9991
2 48216  87.9035  24.9668 0002160  75.7493 284.3876 13.14503437185535
ONEWEB-0189             
1 48217U 21031H   25054.45838671  .00000053  00000+0  10975-3 0  9999
2 48217  87.9034  24.8782 0002161  72.9921 287.1445 13.14502565185339
